{
  "norad_id": 63835,
  "name": "HERMES-3",
  "history": [
    {
      "epoch": "2026-03-28T16:52:05.686176Z",
      "apogee_km": 478.8659655794272,
      "perigee_km": 468.01484837689895,
      "latitude_deg": -1.3518531276170892e-05,
      "longitude_deg": -95.83708075800642,
      "height_km": 474.1582442260874,
      "semi_major_axis_km": 6851.577406978163,
      "eccentricity": 0.00079187,
      "inclination_deg": 97.3965,
      "raan_deg": 343.3061,
      "arg_perigee_deg": 64.0654,
      "mean_anomaly_deg": 296.1402,
      "mean_motion_rev_day": 15.30794556
    }
  ]
}