{"fetched_at":"2026-03-29T16:36:15Z","count":15609,"tles":[{"name":"HERMES-3","line1":"1 63835U 25052BR  26087.70284359  .00024978  00000+0  83930-3 0  9995","line2":"2 63835  97.3965 343.3061 0007918  64.0654 296.1402 15.30794556 57737","category":"Other"}]}